[{"OBJECT_NAME":"HULIANWANG DIGUI-63","OBJECT_ID":"2025-174F","EPOCH":"2026-03-09T22:59:55.143168","MEAN_MOTION":13.24422097,"ECCENTRICITY":0.00012405,"INCLINATION":86.4914,"RA_OF_ASC_NODE":285.5611,"ARG_OF_PERICENTER":92.9186,"MEAN_ANOMALY":267.209,"EPHEMERIS_TYPE":0,"CLASSIFICATION_TYPE":"U","NORAD_CAT_ID":65169,"ELEMENT_SET_NO":999,"REV_AT_EPOCH":2765,"BSTAR":3.202231e-5,"MEAN_MOTION_DOT":2.8e-7,"MEAN_MOTION_DDOT":0},{"OBJECT_NAME":"SL-14 DEB","OBJECT_ID":"1991-056DB","EPOCH":"2026-03-09T08:15:51.655968","MEAN_MOTION":13.22480275,"ECCENTRICITY":0.00114631,"INCLINATION":82.5687,"RA_OF_ASC_NODE":205.081,"ARG_OF_PERICENTER":244.4096,"MEAN_ANOMALY":115.5846,"EPHEMERIS_TYPE":0,"CLASSIFICATION_TYPE":"U","NORAD_CAT_ID":46466,"ELEMENT_SET_NO":999,"REV_AT_EPOCH":26952,"BSTAR":0.0022533107,"MEAN_MOTION_DOT":9.53e-6,"MEAN_MOTION_DDOT":0}]
